SENTINEL-5P             
1 42969U 17064A   26201.25975428  .00000007  00000+0  24155-4 0  9998
2 42969  98.7929 143.1572 0001199  93.2254 266.9060 14.19523773454255
